"properties":{"code":"74014","nom":"Sallanches"}},{"type":"Feature","geometry":{"type":"Polygon","coordinates":[[[6.4431,46.3641],[6.445,46.3443],[6.4231,46.3102],[6.4042,46.3057],[6.4306,46.2859],[6.4442,46.2675],[6.4825,46.2752],[6.4926,46.2682],[6.4867,46.2576],[6.4969,46.244],[6.4889,46.2282],[6.4769,46.2075],[6.4578,46.1928],[6.4505,46.1809],[6.4309,46.1838],[6.4191,46.1918],[6.4027,46.1762],[6.3769,46.1789],[6.3498,46.1932],[6.3549,46.2297],[6.34,46.26],[6.2949,46.2646],[6.2668,46.2477],[6.2499,46.2622],[6.2384,46.2816],[6.2528,46.2904],[6.2486,46.3063],[6.2562,46.3241],[6.2795,46.3506],[6.3041,46.3663],[6.3445,46.3698],[6.3594,46.3496],[6.3916,46.3411],[6.4118,46.3595],[6.4431,46.3641]]]}
